     2              NAVIGATION DATA                         RINEX VERSION / TYPE
CCRINEXN V1.6.0 UX  CDDIS               19-MAY-26 23:31     PGM / RUN BY / DATE 
IGS BROADCAST EPHEMERIS FILE                                COMMENT             
    0.1118D-07  0.2235D-07 -0.5960D-07 -0.1192D-06          ION ALPHA           
    0.9830D+05  0.1311D+06 -0.1311D+06 -0.5898D+06          ION BETA            
   -0.279396772385D-08-0.621724893790D-14   319488     2419 DELTA-UTC: A0,A1,T,W
    18                                                      LEAP SECONDS        
                                                            END OF HEADER       
16 26  5 18  4  0  0.0 0.265078153461D-03 0.682121026330D-11 0.000000000000D+00
    0.970000000000D+02 0.232812500000D+02 0.444018495153D-08-0.122344939522D+01
    0.126287341118D-05 0.149925255682D-01 0.100973993540D-04 0.515368515396D+04
    0.100800000000D+06 0.340864062309D-06-0.322344216233D+00 0.281259417534D-06
    0.958271603904D+00 0.183312500000D+03 0.934285161664D+00-0.775782314447D-08
   -0.804319217410D-09 0.100000000000D+01 0.241900000000D+04 0.000000000000D+00
    0.200000000000D+01 0.000000000000D+00-0.102445483208D-07 0.970000000000D+02
    0.100686000000D+06 0.400000000000D+01 0.000000000000D+00 0.000000000000D+00
18 26  5 18  4  0  0.0-0.349895562977D-03 0.920863385545D-11 0.000000000000D+00
    0.161000000000D+03 0.367812500000D+02 0.440839791318D-08 0.200723785866D+01
    0.189617276192D-05 0.598418246955D-02-0.962987542152D-06 0.515362904167D+04
    0.100800000000D+06-0.782310962677D-07 0.170524194930D+01 0.968575477600D-07
    0.970939854194D+00 0.403281250000D+03-0.287300962347D+01-0.839606401548D-08
    0.492877673191D-10 0.100000000000D+01 0.241900000000D+04 0.000000000000D+00
    0.280000000000D+01 0.000000000000D+00-0.838190317154D-08 0.417000000000D+03
    0.936180000000D+05 0.400000000000D+01 0.000000000000D+00 0.000000000000D+00
19 26  5 18  4  0  0.0 0.700030475855D-03 0.909494701773D-12 0.000000000000D+00
    0.470000000000D+02 0.173468750000D+03 0.428232123301D-08-0.577963897693D+00
    0.891275703907D-05 0.115226720227D-01 0.810623168945D-05 0.515374544716D+04
    0.100800000000D+06 0.219792127609D-06 0.737267408113D+00-0.266358256340D-06
    0.957598445076D+00 0.226750000000D+03 0.297548958771D+01-0.801890544817D-08
    0.142863093678D-11 0.100000000000D+01 0.241900000000D+04 0.000000000000D+00
    0.200000000000D+01 0.000000000000D+00-0.153668224812D-07 0.470000000000D+02
    0.936180000000D+05 0.400000000000D+01 0.000000000000D+00 0.000000000000D+00
20 26  5 18  4  0  0.0 0.159065704793D-03 0.163709046319D-10 0.000000000000D+00
    0.193000000000D+03-0.576875000000D+02 0.438732560686D-08 0.361374869125D+00
   -0.316277146339D-05 0.204914342612D-02 0.108964741230D-04 0.515360226631D+04
    0.100800000000D+06 0.186264514923D-07-0.252534584140D+01 0.260770320892D-07
    0.961214935100D+00 0.170812500000D+03-0.184247068129D+01-0.773389357628D-08
    0.662884754668D-09 0.100000000000D+01 0.241900000000D+04 0.000000000000D+00
    0.200000000000D+01 0.000000000000D+00-0.698491930962D-08 0.193000000000D+03
    0.936180000000D+05 0.400000000000D+01 0.000000000000D+00 0.000000000000D+00
21 26  5 18  4  0  0.0 0.414041802287D-03-0.125055521494D-11 0.000000000000D+00
    0.122000000000D+03-0.175218750000D+03 0.417481675502D-08 0.498152527881D-01
   -0.896304845810D-05 0.788879347965D-03 0.519864261150D-05 0.515356021118D+04
    0.100800000000D+06 0.428408384323D-07 0.275273073433D+01 0.931322574616D-08
    0.963936288958D+00 0.279500000000D+03-0.155070473570D+00-0.807962226298D-08
   -0.123576576032D-09 0.100000000000D+01 0.241900000000D+04 0.000000000000D+00
    0.200000000000D+01 0.000000000000D+00-0.977888703346D-08 0.634000000000D+03
    0.936180000000D+05 0.400000000000D+01 0.000000000000D+00 0.000000000000D+00
22 26  5 18  4  0  0.0-0.250991433859D-06 0.670752342558D-11 0.000000000000D+00
    0.370000000000D+02 0.282187500000D+02 0.453447459335D-08-0.166064680515D+01
    0.134669244289D-05 0.119231170975D-01 0.103320926428D-04 0.515372506332D+04
    0.100800000000D+06-0.322237610817D-06-0.318975437739D+00 0.316649675369D-07
    0.957730539264D+00 0.179125000000D+03-0.994951347443D+00-0.785854162552D-08
   -0.874679291046D-09 0.100000000000D+01 0.241900000000D+04 0.000000000000D+00
    0.200000000000D+01 0.000000000000D+00-0.111758708954D-07 0.370000000000D+02
    0.997980000000D+05 0.400000000000D+01 0.000000000000D+00 0.000000000000D+00
23 26  5 18  4  0  0.0 0.648679211736D-03 0.420641299570D-11 0.000000000000D+00
    0.128000000000D+03-0.149187500000D+03 0.370444001908D-08 0.820868010779D+00
   -0.788085162640D-05 0.619607570116D-02 0.578537583351D-05 0.515372186279D+04
    0.100800000000D+06-0.353902578354D-07 0.271381993978D+01 0.104308128357D-06
    0.988980513134D+00 0.284718750000D+03-0.274093339867D+01-0.781425406648D-08
   -0.155006456641D-09 0.100000000000D+01 0.241900000000D+04 0.000000000000D+00
    0.200000000000D+01 0.000000000000D+00-0.838190317154D-08 0.640000000000D+03
    0.944760000000D+05 0.400000000000D+01 0.000000000000D+00 0.000000000000D+00
24 26  5 18  4  0  0.0 0.163065269589D-04 0.186446413863D-10 0.000000000000D+00
    0.510000000000D+02 0.965625000000D+01 0.555737434409D-08 0.219794229122D+01
    0.188127160072D-06 0.180867435411D-01 0.551901757717D-05 0.515362842369D+04
    0.100800000000D+06 0.447034835815D-07-0.156753807030D+01-0.417232513428D-06
    0.934575748397D+00 0.257406250000D+03 0.114649784739D+01-0.811819529828D-08
    0.362872257943D-09 0.100000000000D+01 0.241900000000D+04 0.000000000000D+00
    0.200000000000D+01 0.000000000000D+00 0.232830600000D-08 0.510000000000D+02
    0.936600000000D+05 0.400000000000D+01 0.000000000000D+00 0.000000000000D+00
25 26  5 18  4  0  0.0 0.421834178269D-03-0.295585778076D-11 0.000000000000D+00
    0.400000000000D+02-0.409375000000D+01 0.499663670140D-08 0.389782818876D+00
   -0.856816768646D-07 0.128513860982D-01 0.953301787376D-05 0.515368997955D+04
    0.100800000000D+06-0.199303030968D-06-0.433824858569D+00 0.800937414169D-07
    0.947461366369D+00 0.189906250000D+03 0.116078698312D+01-0.824855787126D-08
   -0.862893085818D-09 0.100000000000D+01 0.241900000000D+04 0.000000000000D+00
    0.200000000000D+01 0.000000000000D+00 0.558793544769D-08 0.400000000000D+02
    0.936180000000D+05 0.400000000000D+01 0.000000000000D+00 0.000000000000D+00
26 26  5 18  4  0  0.0-0.366156455129D-03-0.397903932026D-11 0.000000000000D+00
    0.900000000000D+02-0.303125000000D+01 0.542844040205D-08-0.445982685037D+00
   -0.176951289177D-06 0.110603014473D-01 0.866502523422D-05 0.515375559044D+04
    0.100800000000D+06-0.111758708954D-07-0.509745698692D+00 0.212341547012D-06
    0.928147687820D+00 0.193718750000D+03 0.714590943181D+00-0.844963767561D-08
   -0.837892044424D-09 0.100000000000D+01 0.241900000000D+04 0.000000000000D+00
    0.200000000000D+01 0.000000000000D+00 0.651925802231D-08 0.900000000000D+02
    0.965580000000D+05 0.400000000000D+01 0.000000000000D+00 0.000000000000D+00
27 26  5 18  4  0  0.0 0.103842467070D-06 0.113686837722D-12 0.000000000000D+00
    0.730000000000D+02 0.163218750000D+03 0.425767734935D-08-0.216147137046D+01
    0.844895839691D-05 0.143361570081D-01 0.809505581856D-05 0.515367794228D+04
    0.100800000000D+06 0.109896063805D-06 0.620281231580D+00-0.130385160446D-06
    0.951980530976D+00 0.221406250000D+03 0.899076352996D+00-0.766817655319D-08
    0.582167106740D-10 0.100000000000D+01 0.241900000000D+04 0.000000000000D+00
    0.280000000000D+01 0.630000000000D+02 0.232830643654D-08 0.730000000000D+02
    0.936180000000D+05 0.400000000000D+01 0.000000000000D+00 0.000000000000D+00
28 26  5 18  4  0  0.0-0.526474323124D-03 0.106865627458D-10 0.000000000000D+00
    0.217000000000D+03 0.725000000000D+01 0.516842957155D-08 0.200352608439D+01
    0.564381480217D-06 0.472252257168D-03 0.526197254658D-05 0.515357298088D+04
    0.100800000000D+06 0.139698386192D-06-0.148249766366D+01 0.186264514923D-08
    0.961421791717D+00 0.277281250000D+03-0.446852085549D+00-0.822641409174D-08
    0.164649715464D-09 0.100000000000D+01 0.241900000000D+04 0.000000000000D+00
    0.200000000000D+01 0.000000000000D+00-0.931322574616D-08 0.473000000000D+03
    0.936180000000D+05 0.400000000000D+01 0.000000000000D+00 0.000000000000D+00
29 26  5 18  4  0  0.0-0.319190323353D-03 0.750333128963D-11 0.000000000000D+00
    0.620000000000D+02 0.156250000000D+03 0.420553232016D-08-0.237046559253D+01
    0.807456672192D-05 0.359984685201D-02 0.866688787937D-05 0.515372564125D+04
    0.100800000000D+06-0.316649675369D-07 0.710378154581D+00 0.186264514923D-07
    0.961128562954D+00 0.212406250000D+03 0.279242393843D+01-0.787604235449D-08
    0.346443002170D-10 0.100000000000D+01 0.241900000000D+04 0.000000000000D+00
    0.200000000000D+01 0.000000000000D+00-0.977888703346D-08 0.620000000000D+02
    0.936180000000D+05 0.400000000000D+01 0.000000000000D+00 0.000000000000D+00
30 26  5 18  4  0  0.0 0.226483214647D-03 0.136424205266D-10 0.000000000000D+00
    0.740000000000D+02 0.418750000000D+01 0.579952728788D-08 0.958895788624D+00
    0.406056642532D-06 0.824422307778D-02 0.526942312717D-05 0.515370379448D+04
    0.100800000000D+06-0.353902578354D-07-0.146773077107D+01 0.931322574615D-07
    0.935786538397D+00 0.267750000000D+03-0.227187880732D+01-0.857714298672D-08
    0.113219001740D-09 0.100000000000D+01 0.241900000000D+04 0.000000000000D+00
    0.200000000000D+01 0.000000000000D+00 0.419095158577D-08 0.740000000000D+02
    0.936180000000D+05 0.400000000000D+01 0.000000000000D+00 0.000000000000D+00
